     2.100          NAVIGATION                              RINEX VERSION / TYPE
fic2rin                                 04/09/2015 00:14:15 PGM / RUN BY / DATE
                                                            END OF HEADER
 1 15  4  9  0  0  0.0 -.701053068042D-05  .454747350886D-12  .000000000000D+00
     .144000000000D+03  .103125000000D+01  .481912930751D-08 -.211360794883D+00
    -.726431608200D-07  .404962152243D-02  .591017305851D-05  .515366168785D+04
     .345600000000D+06  .335276126862D-07 -.105075726732D+01  .335276126862D-07
     .961767663586D+00  .263718750000D+03  .378472725640D+00 -.824498629392D-08
     .228580949885D-10  .100000000000D+01  .183900000000D+04  .000000000000D+00
     .240000000000D+01  .000000000000D+00  .558793544769D-08  .144000000000D+03
     .338406000000D+06  .400000000000D+01
 2 15  4  9  0  0  0.0  .558598898351D-03  .227373675443D-11  .000000000000D+00
     .880000000000D+02  .119062500000D+02  .542594029791D-08  .274525719350D+00
     .748783349991D-06  .145881354110D-01  .551901757717D-05  .515378841972D+04
     .345600000000D+06 -.856816768646D-07 -.108726736942D+01  .284984707832D-06
     .940369964606D+00  .264687500000D+03 -.228673336966D+01 -.869857661635D-08
     .310727228751D-10  .100000000000D+01  .183900000000D+04  .000000000000D+00
     .240000000000D+01  .000000000000D+00 -.204890966415D-07  .880000000000D+02
     .338406000000D+06  .400000000000D+01
 3 15  4  9  0  0  0.0  .289115123451D-03  .142108547152D-10  .000000000000D+00
     .500000000000D+02 -.184375000000D+02  .450840207876D-08  .186967133742D+01
    -.935047864914D-06  .921839498915D-03  .900961458683D-05  .515371080971D+04
     .345600000000D+06  .279396772385D-07 -.102742857938D-01 -.745058059692D-07
     .959769237030D+00  .208375000000D+03 -.278409542146D+01 -.797961809741D-08
    -.496806408267D-09  .100000000000D+01  .183900000000D+04  .000000000000D+00
     .240000000000D+01  .000000000000D+00  .139698386192D-08  .500000000000D+02
     .338406000000D+06  .400000000000D+01
 5 15  4  9  0  0  0.0 -.256277620792D-03  .477484718431D-11  .000000000000D+00
     .730000000000D+02 -.184062500000D+02  .480805741775D-08  .267328277239D+01
    -.989064574242D-06  .402694405057D-02  .885501503944D-05  .515380393219D+04
     .345600000000D+06 -.260770320892D-07 -.166568306010D-01 -.186264514923D-08
     .947010334096D+00  .202843750000D+03  .398707552501D+00 -.809748014969D-08
    -.427160650099D-09  .100000000000D+01  .183900000000D+04  .000000000000D+00
     .240000000000D+01  .000000000000D+00 -.107102096081D-07  .730000000000D+02
     .338406000000D+06  .400000000000D+01
 6 15  4  9  0  0  0.0  .130745116621D-03  .100044417195D-10  .000000000000D+00
     .100000000000D+03  .875000000000D+01  .477305595980D-08  .173219562682D+01
     .497326254845D-06  .221718684770D-03  .602751970291D-05  .515372098541D+04
     .345600000000D+06 -.279396772385D-07 -.105927789177D+01  .186264514923D-07
     .961654676572D+00  .265468750000D+03 -.308804537682D+01 -.817248327387D-08
     .514307137242D-10  .100000000000D+01  .183900000000D+04  .000000000000D+00
     .240000000000D+01  .000000000000D+00  .465661287308D-08  .100000000000D+03
     .338406000000D+06  .400000000000D+01
 7 15  4  9  0  0  0.0  .453910324723D-03  .272848410532D-11  .000000000000D+00
     .170000000000D+02  .317500000000D+02  .456126142342D-08 -.832064808325D+00
     .174716114998D-05  .814988394268D-02  .296719372272D-05  .515372457886D+04
     .345600000000D+06  .150874257088D-06  .210946131338D+01  .353902578354D-07
     .970486576341D+00  .323968750000D+03 -.275723606705D+01 -.832570394184D-08
     .176793078427D-09  .100000000000D+01  .183900000000D+04  .000000000000D+00
     .240000000000D+01  .000000000000D+00 -.111758708954D-07  .170000000000D+02
     .338406000000D+06  .400000000000D+01
 8 15  4  9  0  0  0.0  .193058513105D-04  .341060513165D-12  .000000000000D+00
     .940000000000D+02  .258750000000D+02  .414945855589D-08  .741571596908D+00
     .121444463730D-05  .145027417457D-01  .328198075294D-05  .515359087753D+04
     .345600000000D+06 -.596046447754D-07  .221591158170D+01  .197440385818D-06
     .994139444001D+00  .334812500000D+03 -.267925528613D+01 -.825820113008D-08
    -.146434671020D-10  .100000000000D+01  .183900000000D+04  .000000000000D+00
     .340000000000D+01  .630000000000D+02 -.512227416039D-08  .940000000000D+02
     .338406000000D+06  .400000000000D+01
 9 15  4  9  0  0  0.0 -.132813584059D-03 -.852651282912D-11  .000000000000D+00
     .900000000000D+02  .751562500000D+02  .434553815196D-08  .142004639891D+01
     .397488474846D-05  .425192527473D-03  .949576497078D-05  .515362500000D+04
     .345600000000D+06  .391155481339D-07  .103297127023D+01  .558793544769D-07
     .957883389334D+00  .195093750000D+03  .239074627748D+01 -.796283168390D-08
     .152506352502D-09  .100000000000D+01  .183900000000D+04  .000000000000D+00
     .240000000000D+01  .000000000000D+00  .465661287308D-09  .900000000000D+02
     .338406000000D+06  .400000000000D+01
10 15  4  9  0  0  0.0 -.170195475221D-03 -.136424205266D-11  .000000000000D+00
     .620000000000D+02 -.211250000000D+02  .478019911448D-08  .305072002998D+01
    -.113248825073D-05  .146262034541D-01  .888109207153D-05  .515367834282D+04
     .345600000000D+06  .447034835815D-07 -.129168351809D-02 -.162050127983D-06
     .941806806171D+00  .196343750000D+03  .926192291535D+00 -.793497338063D-08
    -.372515516767D-09  .100000000000D+01  .183900000000D+04  .000000000000D+00
     .340000000000D+01  .000000000000D+00 -.325962901115D-08  .620000000000D+02
     .338406000000D+06  .400000000000D+01
11 15  4  9  0  0  0.0 -.570047181100D-03 -.272848410532D-11  .000000000000D+00
     .760000000000D+02  .180312500000D+02  .649634202729D-08 -.768619155730D+00
     .111758708954D-05  .156526553910D-01  .657141208649D-05  .515372560501D+04
     .345600000000D+06 -.204890966415D-06 -.139808583927D+01  .154599547386D-06
     .892414152380D+00  .216125000000D+03  .139380785573D+01 -.926074288997D-08
     .252153360342D-09  .100000000000D+01  .183900000000D+04  .000000000000D+00
     .240000000000D+01  .000000000000D+00 -.121071934700D-07  .760000000000D+02
     .338406000000D+06  .400000000000D+01
12 15  4  9  0  0  0.0  .283258967102D-03  .306954461848D-11  .000000000000D+00
     .460000000000D+02 -.906562500000D+02  .403195366134D-08 -.134073495794D+01
    -.468641519547D-05  .549963908270D-02  .717304646969D-05  .515370767784D+04
     .345600000000D+06  .633299350739D-07 -.310596475254D+01  .558793544769D-08
     .989805638429D+00  .256718750000D+03  .554480054126D+00 -.784496963162D-08
    -.138577200868D-09  .100000000000D+01  .183900000000D+04  .000000000000D+00
     .240000000000D+01  .000000000000D+00 -.125728547573D-07  .460000000000D+02
     .338406000000D+06  .400000000000D+01
13 15  4  9  0  0  0.0 -.103955622762D-03 -.329691829393D-11  .000000000000D+00
     .490000000000D+02  .912500000000D+02  .408445584827D-08 -.737010594307D-01
     .460632145405D-05  .527900306042D-02  .850111246109D-05  .515368764687D+04
     .345600000000D+06 -.316649675369D-07  .114736508717D+01 -.912696123123D-07
     .974541198627D+00  .222281250000D+03  .206874186201D+01 -.793675916931D-08
     .188936441390D-09  .100000000000D+01  .183900000000D+04  .000000000000D+00
     .240000000000D+01  .000000000000D+00 -.116415321827D-07  .490000000000D+02
     .338406000000D+06  .400000000000D+01
14 15  4  9  0  0  0.0  .723195262253D-04 -.284217094304D-11  .000000000000D+00
     .690000000000D+02  .101281250000D+03  .415303013323D-08  .178174867934D+01
     .528804957867D-05  .793984509073D-02  .992603600025D-05  .515358401299D+04
     .345600000000D+06 -.130385160446D-06  .111308115141D+01 -.210478901863D-06
     .967064265285D+00  .187468750000D+03 -.197378543382D+01 -.791425823205D-08
     .212151694112D-09  .100000000000D+01  .183900000000D+04  .000000000000D+00
     .240000000000D+01  .000000000000D+00 -.931322574615D-08  .690000000000D+02
     .338406000000D+06  .400000000000D+01
15 15  4  9  0  0  0.0 -.242460053414D-03 -.216004991671D-11  .000000000000D+00
     .470000000000D+02  .846875000000D+02  .491163316066D-08  .114905100078D+01
     .444427132607D-05  .712267775089D-02  .934302806854D-05  .515362490273D+04
     .345600000000D+06 -.540167093277D-07  .990535836434D+00  .745058059692D-07
     .933810316011D+00  .185093750000D+03  .388816305474D+00 -.825427239501D-08
    -.110718897601D-10  .100000000000D+01  .183900000000D+04  .000000000000D+00
     .240000000000D+01  .000000000000D+00 -.107102096081D-07  .470000000000D+02
     .338406000000D+06  .400000000000D+01
16 15  4  9  0  0  0.0 -.140477903187D-03  .352429196937D-11  .000000000000D+00
     .690000000000D+02 -.970000000000D+02  .390230540383D-08  .280475016433D+01
    -.501237809658D-05  .825063441880D-02  .713951885700D-05  .515378332710D+04
     .345600000000D+06 -.987201929092D-07 -.308730860300D+01 -.260770320892D-07
     .990360878746D+00  .260187500000D+03  .271295066654D+00 -.772317884426D-08
    -.213580325049D-09  .100000000000D+01  .183900000000D+04  .000000000000D+00
     .240000000000D+01  .000000000000D+00 -.102445483208D-07  .690000000000D+02
     .338406000000D+06  .400000000000D+01
17 15  4  9  0  0  0.0 -.165356788784D-03 -.193267624127D-11  .000000000000D+00
     .830000000000D+02 -.194062500000D+02  .414552982081D-08  .190497990247D+01
    -.123865902424D-05  .101137630409D-01  .997073948383D-05  .515374809265D+04
     .345600000000D+06 -.949949026108D-07 -.206046130242D+01 -.251457095146D-06
     .971785711964D+00  .194875000000D+03 -.201405608826D+01 -.774603693924D-08
     .257510726355D-09  .100000000000D+01  .183900000000D+04  .000000000000D+00
     .240000000000D+01  .000000000000D+00 -.107102096081D-07  .830000000000D+02
     .338406000000D+06  .400000000000D+01
